{
  "type": "FeatureCollection",
  "features": [
    {
      "type": "Feature",
      "properties": {
        "norad_id": 28899,
        "name": "INMARSAT 4-F2 (SOUTHPAN/PRN 122)",
        "group": "gnss",
        "lat": 4.690714669815326,
        "lon": 118.19397085424077,
        "alt_km": 35795.87938550151,
        "timestamp": "2025-12-13T16:48:32.952576+00:00",
        "meta_object_name": "INMARSAT 4-F2 (SOUTHPAN/PRN 122)",
        "meta_object_id": "2005-044A",
        "meta_epoch": "2025-12-12T22:43:03.945216",
        "meta_mean_motion": 1.00271372,
        "meta_eccentricity": 0.00028746,
        "meta_inclination": 4.8531,
        "meta_ra_of_asc_node": 43.693,
        "meta_arg_of_pericenter": 221.7243,
        "meta_mean_anomaly": 300.739,
        "meta_ephemeris_type": 0,
        "meta_classification_type": "U",
        "meta_norad_cat_id": 28899,
        "meta_element_set_no": 999,
        "meta_rev_at_epoch": 7365,
        "meta_bstar": 0,
        "meta_mean_motion_dot": -2.5e-06,
        "meta_mean_motion_ddot": 0,
        "tle_line1": "1 28899U 05044A   25346.94657344 -.00000250  00000+0  00000+0 0  9997",
        "tle_line2": "2 28899   4.8531  43.6930 0002874 221.7243 300.7390  1.00271372 73652"
      },
      "geometry": {
        "type": "Point",
        "coordinates": [
          118.19397085424077,
          4.690714669815326
        ]
      }
    },
    {
      "type": "Feature",
      "properties": {
        "norad_id": 29486,
        "name": "GPS BIIRM-2 (PRN 31)",
        "group": "gnss",
        "lat": 39.269430100595876,
        "lon": -56.724055404334194,
        "alt_km": 20111.64567226562,
        "timestamp": "2025-12-13T16:48:32.952589+00:00",
        "meta_object_name": "GPS BIIRM-2 (PRN 31)",
        "meta_object_id": "2006-042A",
        "meta_epoch": "2025-12-12T12:13:56.756352",
        "meta_mean_motion": 2.00554178,
        "meta_eccentricity": 0.01073525,
        "meta_inclination": 54.6941,
        "meta_ra_of_asc_node": 158.7498,
        "meta_arg_of_pericenter": 51.9566,
        "meta_mean_anomaly": 296.2293,
        "meta_ephemeris_type": 0,
        "meta_classification_type": "U",
        "meta_norad_cat_id": 29486,
        "meta_element_set_no": 999,
        "meta_rev_at_epoch": 14064,
        "meta_bstar": 0,
        "meta_mean_motion_dot": 9.7e-07,
        "meta_mean_motion_ddot": 0,
        "tle_line1": "1 29486U 06042A   25346.50968468  .00000097  00000+0  00000+0 0  9991",
        "tle_line2": "2 29486  54.6941 158.7498 0107352  51.9566 296.2293  2.00554178140642"
      },
      "geometry": {
        "type": "Point",
        "coordinates": [
          -56.724055404334194,
          39.269430100595876
        ]
      }
    },
    {
      "type": "Feature",
      "properties": {
        "norad_id": 29601,
        "name": "GPS BIIRM-3 (PRN 12)",
        "group": "gnss",
        "lat": -5.389497255458306,
        "lon": 45.15874964941193,
        "alt_km": 20217.325128909815,
        "timestamp": "2025-12-13T16:48:32.952601+00:00",
        "meta_object_name": "GPS BIIRM-3 (PRN 12)",
        "meta_object_id": "2006-052A",
        "meta_epoch": "2025-12-11T22:46:47.068032",
        "meta_mean_motion": 2.00573524,
        "meta_eccentricity": 0.00877389,
        "meta_inclination": 54.9707,
        "meta_ra_of_asc_node": 221.4296,
        "meta_arg_of_pericenter": 87.4221,
        "meta_mean_anomaly": 273.6564,
        "meta_ephemeris_type": 0,
        "meta_classification_type": "U",
        "meta_norad_cat_id": 29601,
        "meta_element_set_no": 999,
        "meta_rev_at_epoch": 13965,
        "meta_bstar": 0,
        "meta_mean_motion_dot": 9e-08,
        "meta_mean_motion_ddot": 0,
        "tle_line1": "1 29601U 06052A   25345.94915588  .00000009  00000+0  00000+0 0  9996",
        "tle_line2": "2 29601  54.9707 221.4296 0087738  87.4221 273.6564  2.00573524139650"
      },
      "geometry": {
        "type": "Point",
        "coordinates": [
          45.15874964941193,
          -5.389497255458306
        ]
      }
    },
    {
      "type": "Feature",
      "properties": {
        "norad_id": 32260,
        "name": "GPS BIIRM-4 (PRN 15)",
        "group": "gnss",
        "lat": -28.413939306041655,
        "lon": 64.54232005898722,
        "alt_km": 20406.433300961256,
        "timestamp": "2025-12-13T16:48:32.952612+00:00",
        "meta_object_name": "GPS BIIRM-4 (PRN 15)",
        "meta_object_id": "2007-047A",
        "meta_epoch": "2025-12-12T18:05:03.208704",
        "meta_mean_motion": 2.00564516,
        "meta_eccentricity": 0.01641407,
        "meta_inclination": 53.9552,
        "meta_ra_of_asc_node": 87.7578,
        "meta_arg_of_pericenter": 85.2452,
        "meta_mean_anomaly": 276.6204,
        "meta_ephemeris_type": 0,
        "meta_classification_type": "U",
        "meta_norad_cat_id": 32260,
        "meta_element_set_no": 999,
        "meta_rev_at_epoch": 13307,
        "meta_bstar": 0,
        "meta_mean_motion_dot": -3.5e-07,
        "meta_mean_motion_ddot": 0,
        "tle_line1": "1 32260U 07047A   25346.75350936 -.00000035  00000+0  00000+0 0  9996",
        "tle_line2": "2 32260  53.9552  87.7578 0164140  85.2452 276.6204  2.00564516133078"
      },
      "geometry": {
        "type": "Point",
        "coordinates": [
          64.54232005898722,
          -28.413939306041655
        ]
      }
    },
    {
      "type": "Feature",
      "properties": {
        "norad_id": 32275,
        "name": "COSMOS 2433 (720)",
        "group": "gnss",
        "lat": 59.681775658194304,
        "lon": 91.52841335337486,
        "alt_km": 19134.68192872223,
        "timestamp": "2025-12-13T16:48:32.952624+00:00",
        "meta_object_name": "COSMOS 2433 (720)",
        "meta_object_id": "2007-052A",
        "meta_epoch": "2025-12-10T06:34:19.673184",
        "meta_mean_motion": 2.13103813,
        "meta_eccentricity": 0.00055546,
        "meta_inclination": 65.6847,
        "meta_ra_of_asc_node": 322.2886,
        "meta_arg_of_pericenter": 252.6006,
        "meta_mean_anomaly": 107.3381,
        "meta_ephemeris_type": 0,
        "meta_classification_type": "U",
        "meta_norad_cat_id": 32275,
        "meta_element_set_no": 999,
        "meta_rev_at_epoch": 14103,
        "meta_bstar": 0,
        "meta_mean_motion_dot": -5e-07,
        "meta_mean_motion_ddot": 0,
        "tle_line1": "1 32275U 07052A   25344.27383881 -.00000050  00000+0  00000+0 0  9995",
        "tle_line2": "2 32275  65.6847 322.2886 0005554 252.6006 107.3381  2.13103813141032"
      },
      "geometry": {
        "type": "Point",
        "coordinates": [
          91.52841335337486,
          59.681775658194304
        ]
      }
    },
    {
      "type": "Feature",
      "properties": {
        "norad_id": 32276,
        "name": "COSMOS 2432 (719)",
        "group": "gnss",
        "lat": 46.920634224342024,
        "lon": -8.821419888465408,
        "alt_km": 19130.308084818327,
        "timestamp": "2025-12-13T16:48:32.952636+00:00",
        "meta_object_name": "COSMOS 2432 (719)",
        "meta_object_id": "2007-052B",
        "meta_epoch": "2025-12-10T13:56:19.351392",
        "meta_mean_motion": 2.13102999,
        "meta_eccentricity": 0.0011254,
        "meta_inclination": 65.7001,
        "meta_ra_of_asc_node": 322.4023,
        "meta_arg_of_pericenter": 311.5771,
        "meta_mean_anomaly": 228.309,
        "meta_ephemeris_type": 0,
        "meta_classification_type": "U",
        "meta_norad_cat_id": 32276,
        "meta_element_set_no": 999,
        "meta_rev_at_epoch": 14106,
        "meta_bstar": 0,
        "meta_mean_motion_dot": -5e-07,
        "meta_mean_motion_ddot": 0,
        "tle_line1": "1 32276U 07052B   25344.58077953 -.00000050  00000+0  00000+0 0  9990",
        "tle_line2": "2 32276  65.7001 322.4023 0011254 311.5771 228.3090  2.13102999141067"
      },
      "geometry": {
        "type": "Point",
        "coordinates": [
          -8.821419888465408,
          46.920634224342024
        ]
      }
    },
    {
      "type": "Feature",
      "properties": {
        "norad_id": 32384,
        "name": "GPS BIIRM-5 (PRN 29)",
        "group": "gnss",
        "lat": 54.9431847108631,
        "lon": 19.439784763942225,
        "alt_km": 20142.27124147105,
        "timestamp": "2025-12-13T16:48:32.952648+00:00",
        "meta_object_name": "GPS BIIRM-5 (PRN 29)",
        "meta_object_id": "2007-062A",
        "meta_epoch": "2025-12-11T19:20:30.701760",
        "meta_mean_motion": 2.00577226,
        "meta_eccentricity": 0.00322349,
        "meta_inclination": 55.183,
        "meta_ra_of_asc_node": 281.6834,
        "meta_arg_of_pericenter": 162.4856,
        "meta_mean_anomaly": 4.3365,
        "meta_ephemeris_type": 0,
        "meta_classification_type": "U",
        "meta_norad_cat_id": 32384,
        "meta_element_set_no": 999,
        "meta_rev_at_epoch": 13175,
        "meta_bstar": 0,
        "meta_mean_motion_dot": -7.4e-07,
        "meta_mean_motion_ddot": 0,
        "tle_line1": "1 32384U 07062A   25345.80591090 -.00000074  00000+0  00000+0 0  9996",
        "tle_line2": "2 32384  55.1830 281.6834 0032234 162.4856   4.3365  2.00577226131751"
      },
      "geometry": {
        "type": "Point",
        "coordinates": [
          19.439784763942225,
          54.9431847108631
        ]
      }
    }
  ]
}